{
  "type": "FeatureCollection",
  "features": [
    {
      "type": "Feature",
      "properties": {
        "norad_id": 52912,
        "name": "GAOFEN-12 03",
        "group": "resource",
        "lat": -50.4284362193112,
        "lon": 55.71964311371613,
        "alt_km": 638.703641749833,
        "timestamp": "2025-12-24T05:51:19.263490+00:00",
        "meta_object_name": "GAOFEN-12 03",
        "meta_object_id": "2022-069A",
        "meta_epoch": "2025-12-23T23:56:43.732032",
        "meta_mean_motion": 14.79636891,
        "meta_eccentricity": 0.00018674,
        "meta_inclination": 97.8481,
        "meta_ra_of_asc_node": 245.0867,
        "meta_arg_of_pericenter": 50.3455,
        "meta_mean_anomaly": 309.7921,
        "meta_ephemeris_type": 0,
        "meta_classification_type": "U",
        "meta_norad_cat_id": 52912,
        "meta_element_set_no": 999,
        "meta_rev_at_epoch": 18870,
        "meta_bstar": 0.00026267894,
        "meta_mean_motion_dot": 1.919e-05,
        "meta_mean_motion_ddot": 0,
        "tle_line1": "1 52912U 22069A   25357.99772838  .00001919  00000+0  26268-3 0  9999",
        "tle_line2": "2 52912  97.8481 245.0867 0001867  50.3455 309.7921 14.79636891188703"
      },
      "geometry": {
        "type": "Point",
        "coordinates": [
          55.71964311371613,
          -50.4284362193112
        ]
      }
    },
    {
      "type": "Feature",
      "properties": {
        "norad_id": 54754,
        "name": "SWOT",
        "group": "resource",
        "lat": 14.134803553220157,
        "lon": 88.2877675959179,
        "alt_km": 893.9168858361227,
        "timestamp": "2025-12-24T05:51:19.263500+00:00",
        "meta_object_name": "SWOT",
        "meta_object_id": "2022-173A",
        "meta_epoch": "2025-12-23T22:12:30.113856",
        "meta_mean_motion": 14.00168471,
        "meta_eccentricity": 3.922e-05,
        "meta_inclination": 77.6109,
        "meta_ra_of_asc_node": 271.8908,
        "meta_arg_of_pericenter": 83.1741,
        "meta_mean_anomaly": 276.9455,
        "meta_ephemeris_type": 0,
        "meta_classification_type": "U",
        "meta_norad_cat_id": 54754,
        "meta_element_set_no": 999,
        "meta_rev_at_epoch": 15462,
        "meta_bstar": 4.9836582e-05,
        "meta_mean_motion_dot": 7.1e-07,
        "meta_mean_motion_ddot": 0,
        "tle_line1": "1 54754U 22173A   25357.92534854  .00000071  00000+0  49837-4 0  9994",
        "tle_line2": "2 54754  77.6109 271.8908 0000392  83.1741 276.9455 14.00168471154628"
      },
      "geometry": {
        "type": "Point",
        "coordinates": [
          88.2877675959179,
          14.134803553220157
        ]
      }
    },
    {
      "type": "Feature",
      "properties": {
        "norad_id": 57654,
        "name": "GAOFEN-12 04",
        "group": "resource",
        "lat": 43.929598071436416,
        "lon": -93.87270300890411,
        "alt_km": 625.7879124657202,
        "timestamp": "2025-12-24T05:51:19.263510+00:00",
        "meta_object_name": "GAOFEN-12 04",
        "meta_object_id": "2023-123A",
        "meta_epoch": "2025-12-23T23:09:48.616128",
        "meta_mean_motion": 14.7973103,
        "meta_eccentricity": 0.00012044,
        "meta_inclination": 97.9128,
        "meta_ra_of_asc_node": 273.5524,
        "meta_arg_of_pericenter": 78.9781,
        "meta_mean_anomaly": 281.1566,
        "meta_ephemeris_type": 0,
        "meta_classification_type": "U",
        "meta_norad_cat_id": 57654,
        "meta_element_set_no": 999,
        "meta_rev_at_epoch": 12671,
        "meta_bstar": 0.00018586971,
        "meta_mean_motion_dot": 1.345e-05,
        "meta_mean_motion_ddot": 0,
        "tle_line1": "1 57654U 23123A   25357.96514602  .00001345  00000+0  18587-3 0  9997",
        "tle_line2": "2 57654  97.9128 273.5524 0001204  78.9781 281.1566 14.79731030126711"
      },
      "geometry": {
        "type": "Point",
        "coordinates": [
          -93.87270300890411,
          43.929598071436416
        ]
      }
    },
    {
      "type": "Feature",
      "properties": {
        "norad_id": 59065,
        "name": "PARS 1",
        "group": "resource",
        "lat": 78.01452231144563,
        "lon": -172.4297090047191,
        "alt_km": 431.5027944860267,
        "timestamp": "2025-12-24T05:51:19.263520+00:00",
        "meta_object_name": "PARS 1",
        "meta_object_id": "2024-039Q",
        "meta_epoch": "2025-12-23T23:11:37.459392",
        "meta_mean_motion": 15.4122145,
        "meta_eccentricity": 0.0011694,
        "meta_inclination": 97.4653,
        "meta_ra_of_asc_node": 329.1393,
        "meta_arg_of_pericenter": 37.9208,
        "meta_mean_anomaly": 322.286,
        "meta_ephemeris_type": 0,
        "meta_classification_type": "U",
        "meta_norad_cat_id": 59065,
        "meta_element_set_no": 999,
        "meta_rev_at_epoch": 10161,
        "meta_bstar": 0.00028936698,
        "meta_mean_motion_dot": 0.00011964,
        "meta_mean_motion_ddot": 0,
        "tle_line1": "1 59065U 24039Q   25357.96640578  .00011964  00000+0  28937-3 0  9992",
        "tle_line2": "2 59065  97.4653 329.1393 0011694  37.9208 322.2860 15.41221450101618"
      },
      "geometry": {
        "type": "Point",
        "coordinates": [
          -172.4297090047191,
          78.01452231144563
        ]
      }
    },
    {
      "type": "Feature",
      "properties": {
        "norad_id": 59371,
        "name": "RESURS-P 4",
        "group": "resource",
        "lat": -49.70405797915413,
        "lon": 115.69675859271352,
        "alt_km": 476.7624856700295,
        "timestamp": "2025-12-24T05:51:19.263530+00:00",
        "meta_object_name": "RESURS-P 4",
        "meta_object_id": "2024-061A",
        "meta_epoch": "2025-12-23T22:35:03.090336",
        "meta_mean_motion": 15.32183304,
        "meta_eccentricity": 8.198e-05,
        "meta_inclination": 97.2564,
        "meta_ra_of_asc_node": 304.0424,
        "meta_arg_of_pericenter": 73.6764,
        "meta_mean_anomaly": 286.4568,
        "meta_ephemeris_type": 0,
        "meta_classification_type": "U",
        "meta_norad_cat_id": 59371,
        "meta_element_set_no": 999,
        "meta_rev_at_epoch": 9692,
        "meta_bstar": 0.00013544941,
        "meta_mean_motion_dot": 4.132e-05,
        "meta_mean_motion_ddot": 0,
        "tle_line1": "1 59371U 24061A   25357.94100799  .00004132  00000+0  13545-3 0  9999",
        "tle_line2": "2 59371  97.2564 304.0424 0000819  73.6764 286.4568 15.32183304 96923"
      },
      "geometry": {
        "type": "Point",
        "coordinates": [
          115.69675859271352,
          -49.70405797915413
        ]
      }
    },
    {
      "type": "Feature",
      "properties": {
        "norad_id": 59625,
        "name": "LEGION 1",
        "group": "resource",
        "lat": 9.32304611189447,
        "lon": -105.97315261438271,
        "alt_km": 518.1080058696516,
        "timestamp": "2025-12-24T05:51:19.263540+00:00",
        "meta_object_name": "LEGION 1",
        "meta_object_id": "2024-081A",
        "meta_epoch": "2025-12-23T21:11:17.288736",
        "meta_mean_motion": 15.16584657,
        "meta_eccentricity": 0.00036136,
        "meta_inclination": 97.5198,
        "meta_ra_of_asc_node": 72.4262,
        "meta_arg_of_pericenter": 265.4594,
        "meta_mean_anomaly": 94.6227,
        "meta_ephemeris_type": 0,
        "meta_classification_type": "U",
        "meta_norad_cat_id": 59625,
        "meta_element_set_no": 999,
        "meta_rev_at_epoch": 9096,
        "meta_bstar": 0.00028051284,
        "meta_mean_motion_dot": 5.411e-05,
        "meta_mean_motion_ddot": 0,
        "tle_line1": "1 59625U 24081A   25357.88283899  .00005411  00000+0  28051-3 0  9998",
        "tle_line2": "2 59625  97.5198  72.4262 0003613 265.4594  94.6227 15.16584657 90961"
      },
      "geometry": {
        "type": "Point",
        "coordinates": [
          -105.97315261438271,
          9.32304611189447
        ]
      }
    },
    {
      "type": "Feature",
      "properties": {
        "norad_id": 59626,
        "name": "LEGION 2",
        "group": "resource",
        "lat": -9.165283599551827,
        "lon": 74.09346169117792,
        "alt_km": 521.4513995409261,
        "timestamp": "2025-12-24T05:51:19.263550+00:00",
        "meta_object_name": "LEGION 2",
        "meta_object_id": "2024-081B",
        "meta_epoch": "2025-12-23T20:23:42.226656",
        "meta_mean_motion": 15.16596553,
        "meta_eccentricity": 0.00057373,
        "meta_inclination": 97.52,
        "meta_ra_of_asc_node": 72.4814,
        "meta_arg_of_pericenter": 245.5495,
        "meta_mean_anomaly": 114.5139,
        "meta_ephemeris_type": 0,
        "meta_classification_type": "U",
        "meta_norad_cat_id": 59626,
        "meta_element_set_no": 999,
        "meta_rev_at_epoch": 9096,
        "meta_bstar": 0.00025867302,
        "meta_mean_motion_dot": 4.987e-05,
        "meta_mean_motion_ddot": 0,
        "tle_line1": "1 59626U 24081B   25357.84979429  .00004987  00000+0  25867-3 0  9995",
        "tle_line2": "2 59626  97.5200  72.4814 0005737 245.5495 114.5139 15.16596553 90969"
      },
      "geometry": {
        "type": "Point",
        "coordinates": [
          74.09346169117792,
          -9.165283599551827
        ]
      }
    }
  ]
}